CCSDS_OMM_VERS = 2.0
CREATION_DATE  = 
ORIGINATOR     = 

OBJECT_NAME    = IDEFIX & ARIANE 42P R/B
OBJECT_ID      = 2002-021B
CENTER_NAME    = EARTH
REF_FRAME      = TEME
TIME_SYSTEM    = UTC
MEAN_ELEMENT_THEORY = SGP/SGP4

EPOCH          = 2026-01-18T13:44:13.395264
MEAN_MOTION    = 14.30980908
ECCENTRICITY   = .00115418
INCLINATION    = 98.5824
RA_OF_ASC_NODE = 317.7933
ARG_OF_PERICENTER = 340.6153
MEAN_ANOMALY   = 19.4589

EPHEMERIS_TYPE = 0
CLASSIFICATION_TYPE = U
NORAD_CAT_ID   = 27422
ELEMENT_SET_NO = 999
REV_AT_EPOCH   = 23685
BSTAR          = .10624412E-3
MEAN_MOTION_DOT = .236E-5
MEAN_MOTION_DDOT = 0

CCSDS_OMM_VERS = 2.0
CREATION_DATE  = 
ORIGINATOR     = 

OBJECT_NAME    = AQUA
OBJECT_ID      = 2002-022A
CENTER_NAME    = EARTH
REF_FRAME      = TEME
TIME_SYSTEM    = UTC
MEAN_ELEMENT_THEORY = SGP/SGP4

EPOCH          = 2026-01-18T16:09:20.192832
MEAN_MOTION    = 14.61828261
ECCENTRICITY   = .00020026
INCLINATION    = 98.4088
RA_OF_ASC_NODE = 345.1622
ARG_OF_PERICENTER = 73.7601
MEAN_ANOMALY   = 98.9671

EPHEMERIS_TYPE = 0
CLASSIFICATION_TYPE = U
NORAD_CAT_ID   = 27424
ELEMENT_SET_NO = 999
REV_AT_EPOCH   = 26142
BSTAR          = .18931333E-3
MEAN_MOTION_DOT = .896E-5
MEAN_MOTION_DDOT = 0

CCSDS_OMM_VERS = 2.0
CREATION_DATE  = 
ORIGINATOR     = 

OBJECT_NAME    = CZ-4B R/B
OBJECT_ID      = 2002-024C
CENTER_NAME    = EARTH
REF_FRAME      = TEME
TIME_SYSTEM    = UTC
MEAN_ELEMENT_THEORY = SGP/SGP4

EPOCH          = 2026-01-18T10:01:10.456896
MEAN_MOTION    = 14.14536190
ECCENTRICITY   = .00504618
INCLINATION    = 98.8942
RA_OF_ASC_NODE = 72.0515
ARG_OF_PERICENTER = 164.7937
MEAN_ANOMALY   = 206.1131

EPHEMERIS_TYPE = 0
CLASSIFICATION_TYPE = U
NORAD_CAT_ID   = 27432
ELEMENT_SET_NO = 999
REV_AT_EPOCH   = 22213
BSTAR          = .43762316E-4
MEAN_MOTION_DOT = .41E-6
MEAN_MOTION_DDOT = 0

CCSDS_OMM_VERS = 2.0
CREATION_DATE  = 
ORIGINATOR     = 

OBJECT_NAME    = MIDORI II (ADEOS-II)
OBJECT_ID      = 2002-056A
CENTER_NAME    = EARTH
REF_FRAME      = TEME
TIME_SYSTEM    = UTC
MEAN_ELEMENT_THEORY = SGP/SGP4

EPOCH          = 2026-01-18T14:37:46.492896
MEAN_MOTION    = 14.29237466
ECCENTRICITY   = .00018165
INCLINATION    = 98.7689
RA_OF_ASC_NODE = 336.7698
ARG_OF_PERICENTER = 113.2811
MEAN_ANOMALY   = 246.8562

EPHEMERIS_TYPE = 0
CLASSIFICATION_TYPE = U
NORAD_CAT_ID   = 27597
ELEMENT_SET_NO = 999
REV_AT_EPOCH   = 20314
BSTAR          = .12536579E-3
MEAN_MOTION_DOT = .273E-5
MEAN_MOTION_DDOT = 0

CCSDS_OMM_VERS = 2.0
CREATION_DATE  = 
ORIGINATOR     = 

OBJECT_NAME    = H-2A R/B
OBJECT_ID      = 2002-056E
CENTER_NAME    = EARTH
REF_FRAME      = TEME
TIME_SYSTEM    = UTC
MEAN_ELEMENT_THEORY = SGP/SGP4

EPOCH          = 2026-01-18T14:55:00.776064
MEAN_MOTION    = 14.33713957
ECCENTRICITY   = .00694356
INCLINATION    = 98.3116
RA_OF_ASC_NODE = 340.9212
ARG_OF_PERICENTER = 311.5675
MEAN_ANOMALY   = 222.5544

EPHEMERIS_TYPE = 0
CLASSIFICATION_TYPE = U
NORAD_CAT_ID   = 27601
ELEMENT_SET_NO = 999
REV_AT_EPOCH   = 20693
BSTAR          = .12251422E-3
MEAN_MOTION_DOT = .307E-5
MEAN_MOTION_DDOT = 0

CCSDS_OMM_VERS = 2.0
CREATION_DATE  = 
ORIGINATOR     = 

OBJECT_NAME    = CZ-4B R/B
OBJECT_ID      = 2003-049C
CENTER_NAME    = EARTH
REF_FRAME      = TEME
TIME_SYSTEM    = UTC
MEAN_ELEMENT_THEORY = SGP/SGP4

EPOCH          = 2026-01-18T14:16:36.284160
MEAN_MOTION    = 14.54951935
ECCENTRICITY   = .0048747
INCLINATION    = 98.6819
RA_OF_ASC_NODE = 11.5581
ARG_OF_PERICENTER = 25.8433
MEAN_ANOMALY   = 334.5182

EPHEMERIS_TYPE = 0
CLASSIFICATION_TYPE = U
NORAD_CAT_ID   = 28059
ELEMENT_SET_NO = 999
REV_AT_EPOCH   = 17931
BSTAR          = .11200358E-3
MEAN_MOTION_DOT = .438E-5
MEAN_MOTION_DDOT = 0

CCSDS_OMM_VERS = 2.0
CREATION_DATE  = 
ORIGINATOR     = 

OBJECT_NAME    = CZ-2C R/B
OBJECT_ID      = 2004-012C
CENTER_NAME    = EARTH
REF_FRAME      = TEME
TIME_SYSTEM    = UTC
MEAN_ELEMENT_THEORY = SGP/SGP4

EPOCH          = 2026-01-18T10:26:07.576224
MEAN_MOTION    = 15.58672792
ECCENTRICITY   = .00172013
INCLINATION    = 97.7357
RA_OF_ASC_NODE = 79.1640
ARG_OF_PERICENTER = 133.8474
MEAN_ANOMALY   = 226.4206

EPHEMERIS_TYPE = 0
CLASSIFICATION_TYPE = U
NORAD_CAT_ID   = 28222
ELEMENT_SET_NO = 999
REV_AT_EPOCH   = 19643
BSTAR          = .52287595E-3
MEAN_MOTION_DOT = .40465E-3
MEAN_MOTION_DDOT = 0

CCSDS_OMM_VERS = 2.0
CREATION_DATE  = 
ORIGINATOR     = 

OBJECT_NAME    = SL-16 R/B
OBJECT_ID      = 2004-021B
CENTER_NAME    = EARTH
REF_FRAME      = TEME
TIME_SYSTEM    = UTC
MEAN_ELEMENT_THEORY = SGP/SGP4

EPOCH          = 2026-01-18T14:30:31.385088
MEAN_MOTION    = 14.14592511
ECCENTRICITY   = .00028315
INCLINATION    = 71.0029
RA_OF_ASC_NODE = 337.6005
ARG_OF_PERICENTER = 136.8894
MEAN_ANOMALY   = 223.2450

EPHEMERIS_TYPE = 0
CLASSIFICATION_TYPE = U
NORAD_CAT_ID   = 28353
ELEMENT_SET_NO = 999
REV_AT_EPOCH   = 11575
BSTAR          = -.42057497E-4
MEAN_MOTION_DOT = -.128E-5
MEAN_MOTION_DDOT = 0

CCSDS_OMM_VERS = 2.0
CREATION_DATE  = 
ORIGINATOR     = 

OBJECT_NAME    = CZ-4B R/B
OBJECT_ID      = 2004-035C
CENTER_NAME    = EARTH
REF_FRAME      = TEME
TIME_SYSTEM    = UTC
MEAN_ELEMENT_THEORY = SGP/SGP4

EPOCH          = 2026-01-18T15:13:18.427584
MEAN_MOTION    = 15.28044865
ECCENTRICITY   = .00338084
INCLINATION    = 97.3566
RA_OF_ASC_NODE = 53.4952
ARG_OF_PERICENTER = 143.8999
MEAN_ANOMALY   = 216.4532

EPHEMERIS_TYPE = 0
CLASSIFICATION_TYPE = U
NORAD_CAT_ID   = 28415
ELEMENT_SET_NO = 999
REV_AT_EPOCH   = 17226
BSTAR          = .28498481E-3
MEAN_MOTION_DOT = .7853E-4
MEAN_MOTION_DDOT = 0

CCSDS_OMM_VERS = 2.0
CREATION_DATE  = 
ORIGINATOR     = 

OBJECT_NAME    = CZ-2C R/B
OBJECT_ID      = 2004-046B
CENTER_NAME    = EARTH
REF_FRAME      = TEME
TIME_SYSTEM    = UTC
MEAN_ELEMENT_THEORY = SGP/SGP4

EPOCH          = 2026-01-18T11:46:46.447104
MEAN_MOTION    = 14.26966993
ECCENTRICITY   = .01385189
INCLINATION    = 98.2003
RA_OF_ASC_NODE = 296.5892
ARG_OF_PERICENTER = 303.6645
MEAN_ANOMALY   = 55.1389

EPHEMERIS_TYPE = 0
CLASSIFICATION_TYPE = U
NORAD_CAT_ID   = 28480
ELEMENT_SET_NO = 999
REV_AT_EPOCH   = 10134
BSTAR          = .71448941E-4
MEAN_MOTION_DOT = .15E-5
MEAN_MOTION_DDOT = 0

CCSDS_OMM_VERS = 2.0
CREATION_DATE  = 
ORIGINATOR     = 

OBJECT_NAME    = ARIANE 5 R/B
OBJECT_ID      = 2004-049H
CENTER_NAME    = EARTH
REF_FRAME      = TEME
TIME_SYSTEM    = UTC
MEAN_ELEMENT_THEORY = SGP/SGP4

EPOCH          = 2026-01-18T10:35:07.759392
MEAN_MOTION    = 14.85128084
ECCENTRICITY   = .00848965
INCLINATION    = 98.2549
RA_OF_ASC_NODE = 185.0462
ARG_OF_PERICENTER = 153.2462
MEAN_ANOMALY   = 207.3170

EPHEMERIS_TYPE = 0
CLASSIFICATION_TYPE = U
NORAD_CAT_ID   = 28499
ELEMENT_SET_NO = 999
REV_AT_EPOCH   = 13833
BSTAR          = .12807106E-3
MEAN_MOTION_DOT = .1104E-4
MEAN_MOTION_DDOT = 0

CCSDS_OMM_VERS = 2.0
CREATION_DATE  = 
ORIGINATOR     = 

OBJECT_NAME    = CZ-2D R/B
OBJECT_ID      = 2005-024B
CENTER_NAME    = EARTH
REF_FRAME      = TEME
TIME_SYSTEM    = UTC
MEAN_ELEMENT_THEORY = SGP/SGP4

EPOCH          = 2026-01-18T11:31:39.408672
MEAN_MOTION    = 15.55661219
ECCENTRICITY   = .00047691
INCLINATION    = 97.3616
RA_OF_ASC_NODE = 31.9552
ARG_OF_PERICENTER = 176.8958
MEAN_ANOMALY   = 183.2327

EPHEMERIS_TYPE = 0
CLASSIFICATION_TYPE = U
NORAD_CAT_ID   = 28738
ELEMENT_SET_NO = 999
REV_AT_EPOCH   = 13196
BSTAR          = .45043615E-3
MEAN_MOTION_DOT = .30922E-3
MEAN_MOTION_DDOT = 0

