IDEFIX & ARIANE 42P R/B 
1 27422U 02021B   26018.57237726  .00000236  00000+0  10624-3 0  9994
2 27422  98.5824 317.7933 0011541 340.6153  19.4589 14.30980908236854
AQUA                    
1 27424U 02022A   26018.67315038  .00000896  00000+0  18931-3 0  9992
2 27424  98.4088 345.1622 0002002  73.7601  98.9671 14.61828261261423
CZ-4B R/B               
1 27432U 02024C   26018.41748214  .00000041  00000+0  43762-4 0  9994
2 27432  98.8942  72.0515 0050461 164.7937 206.1131 14.14536190222131
MIDORI II (ADEOS-II)    
1 27597U 02056A   26018.60956589  .00000273  00000+0  12537-3 0  9990
2 27597  98.7689 336.7698 0001816 113.2811 246.8562 14.29237466203141
H-2A R/B                
1 27601U 02056E   26018.62153676  .00000307  00000+0  12251-3 0  9995
2 27601  98.3116 340.9212 0069435 311.5675 222.5544 14.33713957206939
CZ-4B R/B               
1 28059U 03049C   26018.59486440  .00000438  00000+0  11200-3 0  9998
2 28059  98.6819  11.5581 0048747  25.8433 334.5182 14.54951935179316
CZ-2C R/B               
1 28222U 04012C   26018.43480991  .00040465  00000+0  52288-3 0  9994
2 28222  97.7357  79.1640 0017201 133.8474 226.4206 15.58672792196431
SL-16 R/B               
1 28353U 04021B   26018.60452992 -.00000128  00000+0 -42057-4 0  9996
2 28353  71.0029 337.6005 0002831 136.8894 223.2450 14.14592511115759
CZ-4B R/B               
1 28415U 04035C   26018.63424106  .00007853  00000+0  28498-3 0  9991
2 28415  97.3566  53.4952 0033808 143.8999 216.4532 15.28044865172265
CZ-2C R/B               
1 28480U 04046B   26018.49081536  .00000150  00000+0  71449-4 0  9993
2 28480  98.2003 296.5892 0138518 303.6645  55.1389 14.26966993101345
ARIANE 5 R/B            
1 28499U 04049H   26018.44106203  .00001104  00000+0  12807-3 0  9992
2 28499  98.2549 185.0462 0084896 153.2462 207.3170 14.85128084138334
CZ-2D R/B               
1 28738U 05024B   26018.48031723  .00030922  00000+0  45044-3 0  9999
2 28738  97.3616  31.9552 0004769 176.8958 183.2327 15.55661219131964
